OBJECT_NAME,OBJECT_ID,EPOCH,MEAN_MOTION,ECCENTRICITY,INCLINATION,RA_OF_ASC_NODE,ARG_OF_PERICENTER,MEAN_ANOMALY,EPHEMERIS_TYPE,CLASSIFICATION_TYPE,NORAD_CAT_ID,ELEMENT_SET_NO,REV_AT_EPOCH,BSTAR,MEAN_MOTION_DOT,MEAN_MOTION_DDOT
STARLINK-3940,2022-051H,2026-07-09T20:00:01.999008,15.14349664,.0001146,53.1590,300.3835,71.1597,35.6166,0,U,52540,999,573,.27061E-2,.50241E-3,0
STARLINK-3845,2022-051J,2026-07-09T20:00:01.999008,15.18941333,.0000909,53.1609,304.8628,55.3597,133.8225,0,U,52541,999,583,.27409E-2,.58112E-3,0
STARLINK-3937,2022-051K,2026-07-09T20:00:01.999008,15.33391966,.0001841,53.1600,297.6616,62.0448,25.9563,0,U,52542,999,584,.22702E-2,.74664E-3,0
STARLINK-3926,2022-051L,2026-07-09T20:00:01.999008,15.14404112,.000055,53.1586,300.3364,108.5246,342.2035,0,U,52543,999,573,.27668E-2,.51463E-3,0
STARLINK-3944,2022-051M,2026-07-09T07:52:40.974528,15.08836252,.00009995,53.1609,307.8467,67.4335,292.6762,0,U,52544,999,22973,.12150182E-3,.1646E-4,0
STARLINK-3948,2022-051P,2026-07-09T19:26:26.834784,15.31288946,.0000444,53.1640,297.7603,48.5181,311.5859,0,U,52546,999,22992,.10362E-2,.31515E-3,0
STARLINK-3931,2022-051R,2026-07-09T20:00:01.999008,15.18071521,.0002086,53.1592,300.1113,56.6339,332.0772,0,U,52548,999,583,.23647E-2,.48783E-3,0
STARLINK-3935,2022-051S,2026-07-09T20:00:01.999008,15.14764211,.0000674,53.1598,300.3489,39.9782,126.4395,0,U,52549,999,558,.26659E-2,.50075E-3,0
STARLINK-3965,2022-051T,2026-07-09T20:00:01.999008,15.16907806,.0000244,53.1603,300.3245,98.6725,140.4149,0,U,52550,999,583,.23893E-2,.4766E-3,0
STARLINK-3969,2022-051U,2026-07-09T20:00:01.999008,15.17140115,.0000826,53.1603,300.3298,105.3476,91.5029,0,U,52551,999,573,.24153E-2,.48512E-3,0
STARLINK-3966,2022-051V,2026-07-09T20:00:01.999008,15.27760007,.0001881,53.1594,299.9771,52.0908,64.6754,0,U,52552,999,578,.33315E-2,.92346E-3,0
STARLINK-3770,2022-051X,2026-07-09T07:47:22.953408,15.08839604,.00006792,53.1608,307.8545,71.7332,288.3734,0,U,52554,999,22973,.21150495E-3,.308E-4,0
STARLINK-3943,2022-051AA,2026-07-09T20:00:01.999008,15.13633015,.0000873,53.1601,300.4772,85.2063,153.8800,0,U,52557,999,583,.27892E-2,.5076E-3,0
STARLINK-3953,2022-051AC,2026-07-09T06:43:08.781600,15.08840037,.00011023,53.1589,293.2328,86.3517,273.7600,0,U,52559,999,22993,.11553535E-3,.1551E-4,0
STARLINK-3956,2022-051AD,2026-07-09T12:43:28.779744,15.08834988,.0001385,53.1607,291.9275,99.9072,260.2076,0,U,52560,999,22997,.10657E-3,.1408E-4,0
STARLINK-3955,2022-051AE,2026-07-09T20:00:01.999008,15.21795476,.0001516,53.1596,304.9378,73.1665,197.3033,0,U,52561,999,583,.26599E-2,.61322E-3,0
STARLINK-3957,2022-051AF,2026-07-09T07:16:53.128416,15.34392062,.00006827,53.1606,289.9271,80.5860,279.5220,0,U,52562,999,22998,.53673582E-4,.1438E-4,0
STARLINK-3942,2022-051AG,2026-07-09T20:00:01.999008,15.19457359,.0001101,53.1599,304.9320,41.1833,212.2895,0,U,52563,999,573,.26093E-2,.56126E-3,0
STARLINK-3959,2022-051AH,2026-07-08T15:33:42.812352,15.08829959,.00009349,53.1596,310.9005,75.8490,284.2605,0,U,52564,999,22963,.17080922E-3,.2431E-4,0
STARLINK-3911,2022-051AJ,2026-07-09T06:16:37.799904,15.08839086,.00013023,53.1601,293.1380,102.9924,257.1213,0,U,52565,999,22993,.115794E-3,.1555E-4,0
STARLINK-3938,2022-051AK,2026-07-09T20:00:01.999008,15.17474967,.0001301,53.1590,305.0627,86.1504,260.7690,0,U,52566,999,583,.2756E-2,.55991E-3,0
STARLINK-3929,2022-051AL,2026-07-09T20:00:01.999008,15.33144265,.0000824,53.1587,287.6707,60.6857,257.6438,0,U,52567,999,583,.14891E-2,.48292E-3,0
STARLINK-3930,2022-051AM,2026-07-08T07:46:57.226944,15.34389935,.00012576,53.1613,294.6377,70.9078,289.2060,0,U,52568,999,22983,.3616711E-4,.846E-5,0
STARLINK-3927,2022-051AN,2026-07-09T20:00:01.999008,15.31692566,.0001742,53.1599,288.5902,74.7543,151.6784,0,U,52569,999,573,.28728E-3,.8558E-4,0
STARLINK-3901,2022-051AQ,2026-07-09T07:12:17.315424,15.35424167,.00010107,53.1599,290.0242,57.5929,302.5172,0,U,52574,999,22998,-.68520838E-4,-.2771E-4,0
STARLINK-3932,2022-051AS,2026-07-09T07:05:40.938144,15.08841186,.0001171,53.1604,292.9816,73.6036,286.5084,0,U,52576,999,22994,.93133376E-4,.1195E-4,0
STARLINK-3836,2022-051AT,2026-07-08T14:24:54.739584,15.34408270,.00013735,53.1597,308.8231,74.6712,285.4442,0,U,52577,999,22966,.15392336E-3,.4829E-4,0
STARLINK-3833,2022-051AU,2026-07-09T20:00:01.999008,15.32113709,.0000567,53.1607,303.8432,110.0877,164.0959,0,U,52578,999,578,.3161E-2,.100343E-2,0
STARLINK-3893,2022-051AV,2026-07-09T20:00:01.999008,15.56307598,.0000689,53.2168,297.0265,68.6214,264.2023,0,U,52579,999,580,.30866E-2,.226988E-2,0
STARLINK-3919,2022-051AW,2026-07-08T14:45:59.498208,15.08835767,.00012242,53.1610,311.0508,89.5050,270.6082,0,U,52580,999,22963,.85469088E-4,.1072E-4,0
