STARLINK-3940           
1 52540U 22051H   26190.83335647  .00050241  00000+0  27061-2 0  9992
2 52540  53.1590 300.3835 0001146  71.1597  35.6166 15.14349664  5730
STARLINK-3845           
1 52541U 22051J   26190.83335647  .00058112  00000+0  27409-2 0  9994
2 52541  53.1609 304.8628 0000909  55.3597 133.8225 15.18941333  5834
STARLINK-3937           
1 52542U 22051K   26190.83335647  .00074664  00000+0  22702-2 0  9996
2 52542  53.1600 297.6616 0001841  62.0448  25.9563 15.33391966  5843
STARLINK-3926           
1 52543U 22051L   26190.83335647  .00051463  00000+0  27668-2 0  9995
2 52543  53.1586 300.3364 0000550 108.5246 342.2035 15.14404112  5731
STARLINK-3944           
1 52544U 22051M   26190.32825202  .00001646  00000+0  12150-3 0  9990
2 52544  53.1609 307.8467 0000999  67.4335 292.6762 15.08836252229733
STARLINK-3948           
1 52546U 22051P   26190.81003281  .00031515  00000+0  10362-2 0  9991
2 52546  53.1640 297.7603 0000444  48.5181 311.5859 15.31288946229929
STARLINK-3931           
1 52548U 22051R   26190.83335647  .00048783  00000+0  23647-2 0  9994
2 52548  53.1592 300.1113 0002086  56.6339 332.0772 15.18071521  5839
STARLINK-3935           
1 52549U 22051S   26190.83335647  .00050075  00000+0  26659-2 0  9998
2 52549  53.1598 300.3489 0000674  39.9782 126.4395 15.14764211  5580
STARLINK-3965           
1 52550U 22051T   26190.83335647  .00047660  00000+0  23893-2 0  9993
2 52550  53.1603 300.3245 0000244  98.6725 140.4149 15.16907806  5833
STARLINK-3969           
1 52551U 22051U   26190.83335647  .00048512  00000+0  24153-2 0  9991
2 52551  53.1603 300.3298 0000826 105.3476  91.5029 15.17140115  5732
STARLINK-3966           
1 52552U 22051V   26190.83335647  .00092346  00000+0  33315-2 0  9996
2 52552  53.1594 299.9771 0001881  52.0908  64.6754 15.27760007  5781
STARLINK-3770           
1 52554U 22051X   26190.32457122  .00003080  00000+0  21150-3 0  9997
2 52554  53.1608 307.8545 0000679  71.7332 288.3734 15.08839604229735
STARLINK-3943           
1 52557U 22051AA  26190.83335647  .00050760  00000+0  27892-2 0  9998
2 52557  53.1601 300.4772 0000873  85.2063 153.8800 15.13633015  5836
STARLINK-3953           
1 52559U 22051AC  26190.27996275  .00001551  00000+0  11554-3 0  9991
2 52559  53.1589 293.2328 0001102  86.3517 273.7600 15.08840037229938
STARLINK-3956           
1 52560U 22051AD  26190.53019421  .00001408  00000+0  10657-3 0  9995
2 52560  53.1607 291.9275 0001385  99.9072 260.2076 15.08834988229976
STARLINK-3955           
1 52561U 22051AE  26190.83335647  .00061322  00000+0  26599-2 0  9992
2 52561  53.1596 304.9378 0001516  73.1665 197.3033 15.21795476  5834
STARLINK-3957           
1 52562U 22051AF  26190.30339269  .00001438  00000+0  53674-4 0  9997
2 52562  53.1606 289.9271 0000682  80.5860 279.5220 15.34392062229986
STARLINK-3942           
1 52563U 22051AG  26190.83335647  .00056126  00000+0  26093-2 0  9999
2 52563  53.1599 304.9320 0001101  41.1833 212.2895 15.19457359  5732
STARLINK-3959           
1 52564U 22051AH  26189.64841218  .00002431  00000+0  17081-3 0  9991
2 52564  53.1596 310.9005 0000934  75.8490 284.2605 15.08829959229635
STARLINK-3911           
1 52565U 22051AJ  26190.26154861  .00001555  00000+0  11579-3 0  9995
2 52565  53.1601 293.1380 0001302 102.9924 257.1213 15.08839086229934
STARLINK-3938           
1 52566U 22051AK  26190.83335647  .00055991  00000+0  27560-2 0  9991
2 52566  53.1590 305.0627 0001301  86.1504 260.7690 15.17474967  5838
STARLINK-3929           
1 52567U 22051AL  26190.83335647  .00048292  00000+0  14891-2 0  9991
2 52567  53.1587 287.6707 0000824  60.6857 257.6438 15.33144265  5834
STARLINK-3930           
1 52568U 22051AM  26189.32427346  .00000846  00000+0  36167-4 0  9997
2 52568  53.1613 294.6377 0001257  70.9078 289.2060 15.34389935229832
STARLINK-3927           
1 52569U 22051AN  26190.83335647  .00008558  00000+0  28728-3 0  9999
2 52569  53.1599 288.5902 0001742  74.7543 151.6784 15.31692566  5730
STARLINK-3901           
1 52574U 22051AQ  26190.30020041 -.00002771  00000+0 -68521-4 0  9995
2 52574  53.1599 290.0242 0001010  57.5929 302.5172 15.35424167229983
STARLINK-3932           
1 52576U 22051AS  26190.29561271  .00001195  00000+0  93133-4 0  9994
2 52576  53.1604 292.9816 0001171  73.6036 286.5084 15.08841186229949
STARLINK-3836           
1 52577U 22051AT  26189.60063356  .00004829  00000+0  15392-3 0  9996
2 52577  53.1597 308.8231 0001373  74.6712 285.4442 15.34408270229662
STARLINK-3833           
1 52578U 22051AU  26190.83335647  .00100343  00000+0  31610-2 0  9997
2 52578  53.1607 303.8432 0000567 110.0877 164.0959 15.32113709  5782
STARLINK-3893           
1 52579U 22051AV  26190.83335647  .00226988  00000+0  30866-2 0  9994
2 52579  53.2168 297.0265 0000689  68.6214 264.2023 15.56307598  5807
STARLINK-3919           
1 52580U 22051AW  26189.61527197  .00001072  00000+0  85469-4 0  9999
2 52580  53.1610 311.0508 0001224  89.5050 270.6082 15.08835767229639
